OBJECT B                
1 51825U 22019B   24300.89230299  .00036547  00000+0  13427-2 0  9999
2 51825  97.4153  10.9934 0014031 133.1889 227.0525 15.27732706147296
